[{"OBJECT_NAME":"HELIOS 1B","OBJECT_ID":"1999-064A","EPOCH":"2026-04-09T14:01:31.098144","MEAN_MOTION":14.87826075,"ECCENTRICITY":0.0001195,"INCLINATION":98.1662,"RA_OF_ASC_NODE":2.7318,"ARG_OF_PERICENTER":38.3084,"MEAN_ANOMALY":321.8216,"EPHEMERIS_TYPE":0,"CLASSIFICATION_TYPE":"U","NORAD_CAT_ID":25977,"ELEMENT_SET_NO":999,"REV_AT_EPOCH":68985,"BSTAR":0.00019096,"MEAN_MOTION_DOT":1.686e-5,"MEAN_MOTION_DDOT":0},{"OBJECT_NAME":"TERRA","OBJECT_ID":"1999-068A","EPOCH":"2026-04-09T19:42:09.446688","MEAN_MOTION":14.61049977,"ECCENTRICITY":0.0003651,"INCLINATION":97.953,"RA_OF_ASC_NODE":152.0562,"ARG_OF_PERICENTER":88.2589,"MEAN_ANOMALY":42.195,"EPHEMERIS_TYPE":0,"CLASSIFICATION_TYPE":"U","NORAD_CAT_ID":25994,"ELEMENT_SET_NO":999,"REV_AT_EPOCH":39962,"BSTAR":9.4413e-5,"MEAN_MOTION_DOT":4.19e-6,"MEAN_MOTION_DDOT":0},{"OBJECT_NAME":"SL-16 R/B","OBJECT_ID":"2000-006B","EPOCH":"2026-04-09T19:35:38.909184","MEAN_MOTION":14.15831151,"ECCENTRICITY":0.0014924,"INCLINATION":71.0046,"RA_OF_ASC_NODE":32.3853,"ARG_OF_PERICENTER":140.6953,"MEAN_ANOMALY":219.5257,"EPHEMERIS_TYPE":0,"CLASSIFICATION_TYPE":"U","NORAD_CAT_ID":26070,"ELEMENT_SET_NO":999,"REV_AT_EPOCH":35296,"BSTAR":-5.884e-5,"MEAN_MOTION_DOT":-1.64e-6,"MEAN_MOTION_DDOT":0},{"OBJECT_NAME":"TITAN 4B R/B","OBJECT_ID":"2000-047B","EPOCH":"2026-04-09T20:02:03.116256","MEAN_MOTION":15.09845571,"ECCENTRICITY":0.0040977,"INCLINATION":67.9892,"RA_OF_ASC_NODE":312.9147,"ARG_OF_PERICENTER":359.34,"MEAN_ANOMALY":0.7688,"EPHEMERIS_TYPE":0,"CLASSIFICATION_TYPE":"U","NORAD_CAT_ID":26474,"ELEMENT_SET_NO":999,"REV_AT_EPOCH":39761,"BSTAR":0.00017738,"MEAN_MOTION_DOT":2.795e-5,"MEAN_MOTION_DDOT":0},{"OBJECT_NAME":"ENVISAT","OBJECT_ID":"2002-009A","EPOCH":"2026-04-09T19:55:03.461952","MEAN_MOTION":14.39048473,"ECCENTRICITY":0.0001161,"INCLINATION":98.3776,"RA_OF_ASC_NODE":52.6959,"ARG_OF_PERICENTER":82.9145,"MEAN_ANOMALY":330.4698,"EPHEMERIS_TYPE":0,"CLASSIFICATION_TYPE":"U","NORAD_CAT_ID":27386,"ELEMENT_SET_NO":999,"REV_AT_EPOCH":26365,"BSTAR":5.2438e-5,"MEAN_MOTION_DOT":1.19e-6,"MEAN_MOTION_DDOT":0},{"OBJECT_NAME":"IDEFIX & ARIANE 42P R/B","OBJECT_ID":"2002-021B","EPOCH":"2026-04-09T19:40:27.195744","MEAN_MOTION":14.31048759,"ECCENTRICITY":0.001297,"INCLINATION":98.5902,"RA_OF_ASC_NODE":38.0609,"ARG_OF_PERICENTER":94.9984,"MEAN_ANOMALY":265.268,"EPHEMERIS_TYPE":0,"CLASSIFICATION_TYPE":"U","NORAD_CAT_ID":27422,"ELEMENT_SET_NO":999,"REV_AT_EPOCH":24847,"BSTAR":0.00011904,"MEAN_MOTION_DOT":2.7e-6,"MEAN_MOTION_DDOT":0},{"OBJECT_NAME":"AQUA","OBJECT_ID":"2002-022A","EPOCH":"2026-04-09T21:16:23.280384","MEAN_MOTION":14.62052626,"ECCENTRICITY":0.0001613,"INCLINATION":98.4225,"RA_OF_ASC_NODE":67.8323,"ARG_OF_PERICENTER":111.6959,"MEAN_ANOMALY":275.4166,"EPHEMERIS_TYPE":0,"CLASSIFICATION_TYPE":"U","NORAD_CAT_ID":27424,"ELEMENT_SET_NO":999,"REV_AT_EPOCH":27329,"BSTAR":0.00019288,"MEAN_MOTION_DOT":9.19e-6,"MEAN_MOTION_DDOT":0},{"OBJECT_NAME":"CZ-4B R/B","OBJECT_ID":"2002-024C","EPOCH":"2026-04-09T20:26:40.977024","MEAN_MOTION":14.14553481,"ECCENTRICITY":0.0049123,"INCLINATION":98.8774,"RA_OF_ASC_NODE":153.0919,"ARG_OF_PERICENTER":295.002,"MEAN_ANOMALY":178.1988,"EPHEMERIS_TYPE":0,"CLASSIFICATION_TYPE":"U","NORAD_CAT_ID":27432,"ELEMENT_SET_NO":999,"REV_AT_EPOCH":23364,"BSTAR":4.1297e-5,"MEAN_MOTION_DOT":3.5e-7,"MEAN_MOTION_DDOT":0},{"OBJECT_NAME":"MIDORI II (ADEOS-II)","OBJECT_ID":"2002-056A","EPOCH":"2026-04-09T21:15:11.365344","MEAN_MOTION":14.29310548,"ECCENTRICITY":1.28e-5,"INCLINATION":98.782,"RA_OF_ASC_NODE":58.5897,"ARG_OF_PERICENTER":47.2629,"MEAN_ANOMALY":312.8563,"EPHEMERIS_TYPE":0,"CLASSIFICATION_TYPE":"U","NORAD_CAT_ID":27597,"ELEMENT_SET_NO":999,"REV_AT_EPOCH":21475,"BSTAR":0.00014167,"MEAN_MOTION_DOT":3.15e-6,"MEAN_MOTION_DDOT":0},{"OBJECT_NAME":"H-2A R/B","OBJECT_ID":"2002-056E","EPOCH":"2026-04-09T19:57:04.851360","MEAN_MOTION":14.33784377,"ECCENTRICITY":0.0071377,"INCLINATION":98.3253,"RA_OF_ASC_NODE":59.0218,"ARG_OF_PERICENTER":69.1552,"MEAN_ANOMALY":348.0697,"EPHEMERIS_TYPE":0,"CLASSIFICATION_TYPE":"U","NORAD_CAT_ID":27601,"ELEMENT_SET_NO":999,"REV_AT_EPOCH":21857,"BSTAR":0.00013255,"MEAN_MOTION_DOT":3.38e-6,"MEAN_MOTION_DDOT":0},{"OBJECT_NAME":"CZ-4B R/B","OBJECT_ID":"2003-049C","EPOCH":"2026-04-09T12:50:33.025344","MEAN_MOTION":14.55049503,"ECCENTRICITY":0.0048923,"INCLINATION":98.6899,"RA_OF_ASC_NODE":95.6562,"ARG_OF_PERICENTER":136.5896,"MEAN_ANOMALY":223.9169,"EPHEMERIS_TYPE":0,"CLASSIFICATION_TYPE":"U","NORAD_CAT_ID":28059,"ELEMENT_SET_NO":999,"REV_AT_EPOCH":19108,"BSTAR":9.5486e-5,"MEAN_MOTION_DOT":3.67e-6,"MEAN_MOTION_DDOT":0},{"OBJECT_NAME":"CZ-2C R/B","OBJECT_ID":"2004-012C","EPOCH":"2026-04-09T03:28:38.899488","MEAN_MOTION":15.6848261,"ECCENTRICITY":0.00138667,"INCLINATION":97.7153,"RA_OF_ASC_NODE":167.4019,"ARG_OF_PERICENTER":192.3745,"MEAN_ANOMALY":167.7177,"EPHEMERIS_TYPE":0,"CLASSIFICATION_TYPE":"U","NORAD_CAT_ID":28222,"ELEMENT_SET_NO":999,"REV_AT_EPOCH":20904,"BSTAR":0.00040868885,"MEAN_MOTION_DOT":0.0004637,"MEAN_MOTION_DDOT":0},{"OBJECT_NAME":"SL-16 R/B","OBJECT_ID":"2004-021B","EPOCH":"2026-04-09T11:59:46.786848","MEAN_MOTION":14.14603631,"ECCENTRICITY":0.0005831,"INCLINATION":71.0012,"RA_OF_ASC_NODE":167.8378,"ARG_OF_PERICENTER":330.1398,"MEAN_ANOMALY":29.939,"EPHEMERIS_TYPE":0,"CLASSIFICATION_TYPE":"U","NORAD_CAT_ID":28353,"ELEMENT_SET_NO":999,"REV_AT_EPOCH":12719,"BSTAR":0.00014791,"MEAN_MOTION_DOT":2.37e-6,"MEAN_MOTION_DDOT":0},{"OBJECT_NAME":"CZ-4B R/B","OBJECT_ID":"2004-035C","EPOCH":"2026-04-09T01:44:20.922432","MEAN_MOTION":15.29623095,"ECCENTRICITY":0.00306603,"INCLINATION":97.3448,"RA_OF_ASC_NODE":132.9538,"ARG_OF_PERICENTER":218.0469,"MEAN_ANOMALY":141.8607,"EPHEMERIS_TYPE":0,"CLASSIFICATION_TYPE":"U","NORAD_CAT_ID":28415,"ELEMENT_SET_NO":999,"REV_AT_EPOCH":18455,"BSTAR":0.00020119206,"MEAN_MOTION_DOT":5.779e-5,"MEAN_MOTION_DDOT":0},{"OBJECT_NAME":"CZ-2C R/B","OBJECT_ID":"2004-046B","EPOCH":"2026-04-09T11:27:51.484608","MEAN_MOTION":14.27005154,"ECCENTRICITY":0.01405185,"INCLINATION":98.1973,"RA_OF_ASC_NODE":12.543,"ARG_OF_PERICENTER":64.0449,"MEAN_ANOMALY":297.5134,"EPHEMERIS_TYPE":0,"CLASSIFICATION_TYPE":"U","NORAD_CAT_ID":28480,"ELEMENT_SET_NO":999,"REV_AT_EPOCH":11289,"BSTAR":8.360694e-5,"MEAN_MOTION_DOT":1.86e-6,"MEAN_MOTION_DDOT":0},{"OBJECT_NAME":"ARIANE 5 R/B","OBJECT_ID":"2004-049H","EPOCH":"2026-04-09T11:41:02.780736","MEAN_MOTION":14.85329538,"ECCENTRICITY":0.008286,"INCLINATION":98.2673,"RA_OF_ASC_NODE":269.1067,"ARG_OF_PERICENTER":251.0008,"MEAN_ANOMALY":108.2214,"EPHEMERIS_TYPE":0,"CLASSIFICATION_TYPE":"U","NORAD_CAT_ID":28499,"ELEMENT_SET_NO":999,"REV_AT_EPOCH":15036,"BSTAR":0.000112,"MEAN_MOTION_DOT":9.58e-6,"MEAN_MOTION_DDOT":0},{"OBJECT_NAME":"CZ-2D R/B","OBJECT_ID":"2005-024B","EPOCH":"2026-04-09T12:45:25.212384","MEAN_MOTION":15.63178762,"ECCENTRICITY":0.0002189,"INCLINATION":97.3565,"RA_OF_ASC_NODE":115.8725,"ARG_OF_PERICENTER":236.9819,"MEAN_ANOMALY":123.1229,"EPHEMERIS_TYPE":0,"CLASSIFICATION_TYPE":"U","NORAD_CAT_ID":28738,"ELEMENT_SET_NO":999,"REV_AT_EPOCH":14459,"BSTAR":0.00045467,"MEAN_MOTION_DOT":0.0004153,"MEAN_MOTION_DDOT":0}]
