HELIOS 1B               
1 25977U 99064A   26099.58438771  .00001686  00000+0  19096-3 0  9995
2 25977  98.1662   2.7318 0001195  38.3084 321.8216 14.87826075689854
TERRA                   
1 25994U 99068A   26099.82094267  .00000419  00000+0  94413-4 0  9993
2 25994  97.9530 152.0562 0003651  88.2589  42.1950 14.61049977399628
SL-16 R/B               
1 26070U 00006B   26099.81642256 -.00000164  00000+0 -58840-4 0  9992
2 26070  71.0046  32.3853 0014924 140.6953 219.5257 14.15831151352963
TITAN 4B R/B            
1 26474U 00047B   26099.83475829  .00002795  00000+0  17738-3 0  9997
2 26474  67.9892 312.9147 0040977 359.3400   0.7688 15.09845571397614
ENVISAT                 
1 27386U 02009A   26099.82990118  .00000119  00000+0  52438-4 0  9997
2 27386  98.3776  52.6959 0001161  82.9145 330.4698 14.39048473263650
IDEFIX & ARIANE 42P R/B 
1 27422U 02021B   26099.81975921  .00000270  00000+0  11904-3 0  9996
2 27422  98.5902  38.0609 0012970  94.9984 265.2680 14.31048759248476
AQUA                    
1 27424U 02022A   26099.88638056  .00000919  00000+0  19288-3 0  9994
2 27424  98.4225  67.8323 0001613 111.6959 275.4166 14.62052626273291
CZ-4B R/B               
1 27432U 02024C   26099.85186316  .00000035  00000+0  41297-4 0  9994
2 27432  98.8774 153.0919 0049123 295.0020 178.1988 14.14553481233644
MIDORI II (ADEOS-II)    
1 27597U 02056A   26099.88554821  .00000315  00000+0  14167-3 0  9990
2 27597  98.7820  58.5897 0000128  47.2629 312.8563 14.29310548214753
H-2A R/B                
1 27601U 02056E   26099.83130615  .00000338  00000+0  13255-3 0  9994
2 27601  98.3253  59.0218 0071377  69.1552 348.0697 14.33784377218573
CZ-4B R/B               
1 28059U 03049C   26099.53510446  .00000367  00000+0  95486-4 0  9995
2 28059  98.6899  95.6562 0048923 136.5896 223.9169 14.55049503191089
CZ-2C R/B               
1 28222U 04012C   26099.14489467  .00046370  00000+0  40869-3 0  9991
2 28222  97.7153 167.4019 0013866 192.3745 167.7177 15.68482610209045
SL-16 R/B               
1 28353U 04021B   26099.49984707  .00000237  00000+0  14791-3 0  9998
2 28353  71.0012 167.8378 0005831 330.1398  29.9390 14.14603631127199
CZ-4B R/B               
1 28415U 04035C   26099.07246438  .00005779  00000+0  20119-3 0  9995
2 28415  97.3448 132.9538 0030660 218.0469 141.8607 15.29623095184555
CZ-2C R/B               
1 28480U 04046B   26099.47767922  .00000186  00000+0  83607-4 0  9998
2 28480  98.1973  12.5430 0140518  64.0449 297.5134 14.27005154112893
ARIANE 5 R/B            
1 28499U 04049H   26099.48683774  .00000958  00000+0  11200-3 0  9990
2 28499  98.2673 269.1067 0082860 251.0008 108.2214 14.85329538150361
CZ-2D R/B               
1 28738U 05024B   26099.53154181  .00041530  00000+0  45467-3 0  9994
2 28738  97.3565 115.8725 0002189 236.9819 123.1229 15.63178762144591
